STARLINK-35444          
1 66511U 25263AC  25338.58334491 -.02013773  00000+0 -21101-1 0  9995
2 66511  42.9990 173.0066 0001635 262.2360  98.2832 15.66776390  4324
STARLINK-35366          
1 66512U 25263AD  25338.58334491 -.02011550  00000+0 -21075-1 0  9997
2 66512  42.9990 172.9967 0001588 261.0101 103.3415 15.66776167  4327
STARLINK-35692          
1 66513U 25263AE  25338.58334491 -.02012713  00000+0 -21087-1 0  9993
2 66513  42.9989 173.0110 0001733 263.2233  95.3776 15.66776279  4324
SENTINEL-6B             
1 66514U 25264A   25338.61347391  .00000011  00000+0  29613-3 0  9991
2 66514  66.0390 179.3839 0011541 268.4634  91.5062 12.85877672  2247
STARLINK-35924          
1 66516U 25265A   25338.58334491 -.01849654  00000+0 -14797-1 0  9999
2 66516  42.9994 102.2689 0001409 283.6008 125.8678 15.73431911  3669
STARLINK-35937          
1 66517U 25265B   25338.58334491 -.01857702  00000+0 -14868-1 0  9992
2 66517  42.9994 102.2651 0001249 277.8199 133.5614 15.73439386  3689
STARLINK-35962          
1 66518U 25265C   25338.58334491 -.01866863  00000+0 -14943-1 0  9995
2 66518  42.9993 102.2598 0001563 275.1756 138.1130 15.73450144  3687
STARLINK-35931          
1 66519U 25265D   25338.58334491 -.01907091  00000+0 -15309-1 0  9992
2 66519  42.9995 102.2548 0001409 277.4878 137.7401 15.73460848  3682
STARLINK-35952          
1 66520U 25265E   25338.58334491 -.01863507  00000+0 -14918-1 0  9992
2 66520  42.9994 102.2498 0001444 284.6478 132.4858 15.73441523  3689
STARLINK-35915          
1 66521U 25265F   25338.58334491 -.01862440  00000+0 -14910-1 0  9990
2 66521  42.9992 102.2450 0000957 268.3342 150.7086 15.73445494  3680
STARLINK-35946          
1 66522U 25265G   25338.58334491 -.01865993  00000+0 -14938-1 0  9997
2 66522  42.9993 102.2402 0001342 279.1919 141.7684 15.73447848  3687
STARLINK-35969          
1 66523U 25265H   25338.58334491 -.01861612  00000+0 -14901-1 0  9992
2 66523  42.9994 102.2355 0001145 277.3639 145.5127 15.73445371  3689
