CCSDS_OMM_VERS = 2.0
CREATION_DATE  = 
ORIGINATOR     = 

OBJECT_NAME    = STARLINK-35444
OBJECT_ID      = 2025-263AC
CENTER_NAME    = EARTH
REF_FRAME      = TEME
TIME_SYSTEM    = UTC
MEAN_ELEMENT_THEORY = SGP/SGP4

EPOCH          = 2025-12-04T14:00:01.000224
MEAN_MOTION    = 15.66776390
ECCENTRICITY   = .0001635
INCLINATION    = 42.9990
RA_OF_ASC_NODE = 173.0066
ARG_OF_PERICENTER = 262.2360
MEAN_ANOMALY   = 98.2832

EPHEMERIS_TYPE = 0
CLASSIFICATION_TYPE = U
NORAD_CAT_ID   = 66511
ELEMENT_SET_NO = 999
REV_AT_EPOCH   = 432
BSTAR          = -.21100943E-1
MEAN_MOTION_DOT = -.2013773E-1
MEAN_MOTION_DDOT = 0

CCSDS_OMM_VERS = 2.0
CREATION_DATE  = 
ORIGINATOR     = 

OBJECT_NAME    = STARLINK-35366
OBJECT_ID      = 2025-263AD
CENTER_NAME    = EARTH
REF_FRAME      = TEME
TIME_SYSTEM    = UTC
MEAN_ELEMENT_THEORY = SGP/SGP4

EPOCH          = 2025-12-04T14:00:01.000224
MEAN_MOTION    = 15.66776167
ECCENTRICITY   = .00015883
INCLINATION    = 42.9990
RA_OF_ASC_NODE = 172.9967
ARG_OF_PERICENTER = 261.0101
MEAN_ANOMALY   = 103.3415

EPHEMERIS_TYPE = 0
CLASSIFICATION_TYPE = U
NORAD_CAT_ID   = 66512
ELEMENT_SET_NO = 999
REV_AT_EPOCH   = 432
BSTAR          = -.21075059E-1
MEAN_MOTION_DOT = -.201155E-1
MEAN_MOTION_DDOT = 0

CCSDS_OMM_VERS = 2.0
CREATION_DATE  = 
ORIGINATOR     = 

OBJECT_NAME    = STARLINK-35692
OBJECT_ID      = 2025-263AE
CENTER_NAME    = EARTH
REF_FRAME      = TEME
TIME_SYSTEM    = UTC
MEAN_ELEMENT_THEORY = SGP/SGP4

EPOCH          = 2025-12-04T14:00:01.000224
MEAN_MOTION    = 15.66776279
ECCENTRICITY   = .00017337
INCLINATION    = 42.9989
RA_OF_ASC_NODE = 173.0110
ARG_OF_PERICENTER = 263.2233
MEAN_ANOMALY   = 95.3776

EPHEMERIS_TYPE = 0
CLASSIFICATION_TYPE = U
NORAD_CAT_ID   = 66513
ELEMENT_SET_NO = 999
REV_AT_EPOCH   = 432
BSTAR          = -.21087424E-1
MEAN_MOTION_DOT = -.2012713E-1
MEAN_MOTION_DDOT = 0

CCSDS_OMM_VERS = 2.0
CREATION_DATE  = 
ORIGINATOR     = 

OBJECT_NAME    = SENTINEL-6B
OBJECT_ID      = 2025-264A
CENTER_NAME    = EARTH
REF_FRAME      = TEME
TIME_SYSTEM    = UTC
MEAN_ELEMENT_THEORY = SGP/SGP4

EPOCH          = 2025-12-04T14:43:24.145824
MEAN_MOTION    = 12.85877672
ECCENTRICITY   = .00115411
INCLINATION    = 66.0390
RA_OF_ASC_NODE = 179.3839
ARG_OF_PERICENTER = 268.4634
MEAN_ANOMALY   = 91.5062

EPHEMERIS_TYPE = 0
CLASSIFICATION_TYPE = U
NORAD_CAT_ID   = 66514
ELEMENT_SET_NO = 999
REV_AT_EPOCH   = 224
BSTAR          = .29612691E-3
MEAN_MOTION_DOT = .11E-6
MEAN_MOTION_DDOT = 0

CCSDS_OMM_VERS = 2.0
CREATION_DATE  = 
ORIGINATOR     = 

OBJECT_NAME    = STARLINK-35924
OBJECT_ID      = 2025-265A
CENTER_NAME    = EARTH
REF_FRAME      = TEME
TIME_SYSTEM    = UTC
MEAN_ELEMENT_THEORY = SGP/SGP4

EPOCH          = 2025-12-04T14:00:01.000224
MEAN_MOTION    = 15.73431911
ECCENTRICITY   = .00014093
INCLINATION    = 42.9994
RA_OF_ASC_NODE = 102.2689
ARG_OF_PERICENTER = 283.6008
MEAN_ANOMALY   = 125.8678

EPHEMERIS_TYPE = 0
CLASSIFICATION_TYPE = U
NORAD_CAT_ID   = 66516
ELEMENT_SET_NO = 999
REV_AT_EPOCH   = 366
BSTAR          = -.14797051E-1
MEAN_MOTION_DOT = -.1849654E-1
MEAN_MOTION_DDOT = 0

CCSDS_OMM_VERS = 2.0
CREATION_DATE  = 
ORIGINATOR     = 

OBJECT_NAME    = STARLINK-35937
OBJECT_ID      = 2025-265B
CENTER_NAME    = EARTH
REF_FRAME      = TEME
TIME_SYSTEM    = UTC
MEAN_ELEMENT_THEORY = SGP/SGP4

EPOCH          = 2025-12-04T14:00:01.000224
MEAN_MOTION    = 15.73439386
ECCENTRICITY   = .00012499
INCLINATION    = 42.9994
RA_OF_ASC_NODE = 102.2651
ARG_OF_PERICENTER = 277.8199
MEAN_ANOMALY   = 133.5614

EPHEMERIS_TYPE = 0
CLASSIFICATION_TYPE = U
NORAD_CAT_ID   = 66517
ELEMENT_SET_NO = 999
REV_AT_EPOCH   = 368
BSTAR          = -.14867605E-1
MEAN_MOTION_DOT = -.1857702E-1
MEAN_MOTION_DDOT = 0

CCSDS_OMM_VERS = 2.0
CREATION_DATE  = 
ORIGINATOR     = 

OBJECT_NAME    = STARLINK-35962
OBJECT_ID      = 2025-265C
CENTER_NAME    = EARTH
REF_FRAME      = TEME
TIME_SYSTEM    = UTC
MEAN_ELEMENT_THEORY = SGP/SGP4

EPOCH          = 2025-12-04T14:00:01.000224
MEAN_MOTION    = 15.73450144
ECCENTRICITY   = .00015633
INCLINATION    = 42.9993
RA_OF_ASC_NODE = 102.2598
ARG_OF_PERICENTER = 275.1756
MEAN_ANOMALY   = 138.1130

EPHEMERIS_TYPE = 0
CLASSIFICATION_TYPE = U
NORAD_CAT_ID   = 66518
ELEMENT_SET_NO = 999
REV_AT_EPOCH   = 368
BSTAR          = -.14942632E-1
MEAN_MOTION_DOT = -.1866863E-1
MEAN_MOTION_DDOT = 0

CCSDS_OMM_VERS = 2.0
CREATION_DATE  = 
ORIGINATOR     = 

OBJECT_NAME    = STARLINK-35931
OBJECT_ID      = 2025-265D
CENTER_NAME    = EARTH
REF_FRAME      = TEME
TIME_SYSTEM    = UTC
MEAN_ELEMENT_THEORY = SGP/SGP4

EPOCH          = 2025-12-04T14:00:01.000224
MEAN_MOTION    = 15.73460848
ECCENTRICITY   = .00014097
INCLINATION    = 42.9995
RA_OF_ASC_NODE = 102.2548
ARG_OF_PERICENTER = 277.4878
MEAN_ANOMALY   = 137.7401

EPHEMERIS_TYPE = 0
CLASSIFICATION_TYPE = U
NORAD_CAT_ID   = 66519
ELEMENT_SET_NO = 999
REV_AT_EPOCH   = 368
BSTAR          = -.15309411E-1
MEAN_MOTION_DOT = -.1907091E-1
MEAN_MOTION_DDOT = 0

CCSDS_OMM_VERS = 2.0
CREATION_DATE  = 
ORIGINATOR     = 

OBJECT_NAME    = STARLINK-35952
OBJECT_ID      = 2025-265E
CENTER_NAME    = EARTH
REF_FRAME      = TEME
TIME_SYSTEM    = UTC
MEAN_ELEMENT_THEORY = SGP/SGP4

EPOCH          = 2025-12-04T14:00:01.000224
MEAN_MOTION    = 15.73441523
ECCENTRICITY   = .00014444
INCLINATION    = 42.9994
RA_OF_ASC_NODE = 102.2498
ARG_OF_PERICENTER = 284.6478
MEAN_ANOMALY   = 132.4858

EPHEMERIS_TYPE = 0
CLASSIFICATION_TYPE = U
NORAD_CAT_ID   = 66520
ELEMENT_SET_NO = 999
REV_AT_EPOCH   = 368
BSTAR          = -.14918234E-1
MEAN_MOTION_DOT = -.1863507E-1
MEAN_MOTION_DDOT = 0

CCSDS_OMM_VERS = 2.0
CREATION_DATE  = 
ORIGINATOR     = 

OBJECT_NAME    = STARLINK-35915
OBJECT_ID      = 2025-265F
CENTER_NAME    = EARTH
REF_FRAME      = TEME
TIME_SYSTEM    = UTC
MEAN_ELEMENT_THEORY = SGP/SGP4

EPOCH          = 2025-12-04T14:00:01.000224
MEAN_MOTION    = 15.73445494
ECCENTRICITY   = .00009575
INCLINATION    = 42.9992
RA_OF_ASC_NODE = 102.2450
ARG_OF_PERICENTER = 268.3342
MEAN_ANOMALY   = 150.7086

EPHEMERIS_TYPE = 0
CLASSIFICATION_TYPE = U
NORAD_CAT_ID   = 66521
ELEMENT_SET_NO = 999
REV_AT_EPOCH   = 368
BSTAR          = -.14909553E-1
MEAN_MOTION_DOT = -.186244E-1
MEAN_MOTION_DDOT = 0

CCSDS_OMM_VERS = 2.0
CREATION_DATE  = 
ORIGINATOR     = 

OBJECT_NAME    = STARLINK-35946
OBJECT_ID      = 2025-265G
CENTER_NAME    = EARTH
REF_FRAME      = TEME
TIME_SYSTEM    = UTC
MEAN_ELEMENT_THEORY = SGP/SGP4

EPOCH          = 2025-12-04T14:00:01.000224
MEAN_MOTION    = 15.73447848
ECCENTRICITY   = .00013424
INCLINATION    = 42.9993
RA_OF_ASC_NODE = 102.2402
ARG_OF_PERICENTER = 279.1919
MEAN_ANOMALY   = 141.7684

EPHEMERIS_TYPE = 0
CLASSIFICATION_TYPE = U
NORAD_CAT_ID   = 66522
ELEMENT_SET_NO = 999
REV_AT_EPOCH   = 368
BSTAR          = -.14937861E-1
MEAN_MOTION_DOT = -.1865993E-1
MEAN_MOTION_DDOT = 0

CCSDS_OMM_VERS = 2.0
CREATION_DATE  = 
ORIGINATOR     = 

OBJECT_NAME    = STARLINK-35969
OBJECT_ID      = 2025-265H
CENTER_NAME    = EARTH
REF_FRAME      = TEME
TIME_SYSTEM    = UTC
MEAN_ELEMENT_THEORY = SGP/SGP4

EPOCH          = 2025-12-04T14:00:01.000224
MEAN_MOTION    = 15.73445371
ECCENTRICITY   = .00011453
INCLINATION    = 42.9994
RA_OF_ASC_NODE = 102.2355
ARG_OF_PERICENTER = 277.3639
MEAN_ANOMALY   = 145.5127

EPHEMERIS_TYPE = 0
CLASSIFICATION_TYPE = U
NORAD_CAT_ID   = 66523
ELEMENT_SET_NO = 999
REV_AT_EPOCH   = 368
BSTAR          = -.14900578E-1
MEAN_MOTION_DOT = -.1861612E-1
MEAN_MOTION_DDOT = 0

